[{"OBJECT_NAME":"STARLINK-4437","OBJECT_ID":"2022-099AT","EPOCH":"2026-03-09T21:54:53.695872","MEAN_MOTION":15.05661883,"ECCENTRICITY":5.728e-5,"INCLINATION":97.6026,"RA_OF_ASC_NODE":191.3997,"ARG_OF_PERICENTER":130.4613,"MEAN_ANOMALY":229.6664,"EPHEMERIS_TYPE":0,"CLASSIFICATION_TYPE":"U","NORAD_CAT_ID":53506,"ELEMENT_SET_NO":999,"REV_AT_EPOCH":19608,"BSTAR":-0.00012770879,"MEAN_MOTION_DOT":-1.903e-5,"MEAN_MOTION_DDOT":0},{"OBJECT_NAME":"PEGASUS DEB","OBJECT_ID":"1994-029AGC","EPOCH":"2026-03-05T08:27:18.984384","MEAN_MOTION":14.52218034,"ECCENTRICITY":0.0236757,"INCLINATION":81.9426,"RA_OF_ASC_NODE":296.4283,"ARG_OF_PERICENTER":114.8689,"MEAN_ANOMALY":247.7324,"EPHEMERIS_TYPE":0,"CLASSIFICATION_TYPE":"U","NORAD_CAT_ID":39929,"ELEMENT_SET_NO":999,"REV_AT_EPOCH":61587,"BSTAR":0.0010545,"MEAN_MOTION_DOT":6.215e-5,"MEAN_MOTION_DDOT":0}]
